MTI                     
1 26102U 00014A   22117.07274771  .00446368  83851-4  10562-2 0  9990
2 26102  97.4574  48.9358 0008417 154.4553 216.2545 15.96701630230528
HELIOS 2A               
1 28492U 04049A   22117.12275942  .00002222  00000+0  21951-3 0  9995
2 28492  98.2298  57.7778 0012897 247.5539 112.4318 14.92997718927463
CFESAT                  
1 30777U 07006F   22116.74842952  .00053311  00000+0  87157-3 0  9993
2 30777  35.4206 276.6611 0003602 324.2427  35.8063 15.51432368841129
SPIRALE A               
1 33751U 09008C   22117.11500063  .00000168  00000+0  87069-3 0  9992
2 33751   2.0461 304.8172 5424666 148.0806 260.5787  4.58838552192363
SPIRALE B               
1 33752U 09008D   22116.17110082  .00008148  00000+0  15441-2 0  9996
2 33752   1.7614 145.4488 6879094  92.7567 341.3301  2.80788856123603
SAPPHIRE                
1 39088U 13009C   22117.14239932  .00000146  00000+0  67030-4 0  9997
2 39088  98.4302 314.1872 0012529  71.4796 288.7749 14.34286399479784
